NORAD_CAT_ID,OBJECT_NAME,OBJECT_TYPE,EPOCH,MEAN_MOTION,ECCENTRICITY,INCLINATION,RA_OF_ASC_NODE,ARG_OF_PERICENTER,MEAN_ANOMALY,BSTAR,MEAN_MOTION_DOT,MEAN_MOTION_DDOT,TLE_LINE0,TLE_LINE1,TLE_LINE2,SEMIMAJOR_AXIS,PERIOD,APOGEE,PERIGEE,DECAYED
53825.0,STARLINK-4751,PAYLOAD,2024-07-10 03:56:08,15.08837287,0.0001421,53.2159,151.551,97.835,262.2803,-9.712e-05,-1.833e-05,0.0,0 STARLINK-4751,1 53825U 22114H   24192.16398173 -.00001833  00000-0 -97120-4 0  9999,2 53825  53.2159 151.5510 0001421  97.8350 262.2803 15.08837287101114,6917.889,95.438,540.737,538.771,0.0
53825.0,STARLINK-4751,PAYLOAD,2024-07-10 21:25:23,15.08836379,0.0001427,53.2164,148.2797,95.2166,264.8989,0.00027596,4.106e-05,0.0,0 STARLINK-4751,1 53825U 22114H   24192.89262828  .00004106  00000-0  27596-3 0  9999,2 53825  53.2164 148.2797 0001427  95.2166 264.8989 15.08836379100688,6917.891,95.438,540.744,538.769,0.0
53825.0,STARLINK-4751,PAYLOAD,2024-07-11 06:57:41,15.08844062,0.000144,53.2163,146.4954,94.9628,265.1529,0.00035209,5.321e-05,0.0,0 STARLINK-4751,1 53825U 22114H   24193.29006724  .00005321  00000-0  35209-3 0  9995,2 53825  53.2163 146.4954 0001440  94.9628 265.1529 15.08844062101285,6917.868,95.437,540.729,538.737,0.0
53825.0,STARLINK-4751,PAYLOAD,2024-07-12 03:37:42,15.08841154,0.0001277,53.2156,142.6289,83.4041,276.7097,0.00016753,2.379e-05,0.0,0 STARLINK-4751,1 53825U 22114H   24194.15118883  .00002379  00000-0  16753-3 0  9994,2 53825  53.2156 142.6289 0001277  83.4041 276.7097 15.08841154100877,6917.877,95.437,540.625,538.858,0.0
53825.0,STARLINK-4751,PAYLOAD,2024-07-12 13:10:03,15.0880312,0.0001602,53.2165,140.8473,91.0235,269.0941,-0.00050981,-8.384e-05,0.0,0 STARLINK-4751,1 53825U 22114H   24194.54865024 -.00008384  00000-0 -50981-3 0  9998,2 53825  53.2165 140.8473 0001602  91.0235 269.0941 15.08803120100935,6917.993,95.44,540.966,538.75,0.0
53825.0,STARLINK-4751,PAYLOAD,2024-07-13 03:28:31,15.08831358,0.0001711,53.2159,138.1679,97.2257,262.893,5.5715e-05,5.99e-06,0.0,0 STARLINK-4751,1 53825U 22114H   24195.14480659  .00000599  00000-0  55715-4 0  9991,2 53825  53.2159 138.1679 0001711  97.2257 262.8930 15.08831358101023,6917.907,95.438,540.955,538.588,0.0
53825.0,STARLINK-4751,PAYLOAD,2024-07-13 13:00:49,15.08848728,0.0001413,53.2142,136.3847,94.8781,265.2373,0.00036744,5.566e-05,0.0,0 STARLINK-4751,1 53825U 22114H   24195.54224045  .00005566  00000-0  36744-3 0  9999,2 53825  53.2142 136.3847 0001413  94.8781 265.2373 15.08848728101089,6917.854,95.437,540.696,538.741,0.0
53825.0,STARLINK-4751,PAYLOAD,2024-07-14 03:19:17,15.08886123,0.0001554,53.2142,133.7095,87.6637,272.4533,0.0017137,0.00027125,0.0,0 STARLINK-4751,1 53825U 22114H   24196.13839855  .00027125  00000-0  17137-2 0  9995,2 53825  53.2142 133.7095 0001554  87.6637 272.4533 15.08886123101170,6917.739,95.435,540.679,538.529,0.0
53825.0,STARLINK-4751,PAYLOAD,2024-07-14 12:51:35,15.08896686,0.0002124,53.2154,131.9248,69.9716,290.1505,0.0015096,0.00023857,0.0,0 STARLINK-4751,1 53825U 22114H   24196.53582833  .00023857  00000-0  15096-2 0  9990,2 53825  53.2154 131.9248 0002124  69.9716 290.1505 15.08896686101236,6917.707,95.434,541.041,538.103,0.0
53825.0,STARLINK-4751,PAYLOAD,2024-07-14 19:13:08,15.08831846,6.77e-05,53.2144,130.7315,91.527,268.58,-0.00090938,-0.00014728,0.0,0 STARLINK-4751,1 53825U 22114H   24196.80079176 -.00014728  00000-0 -90938-3 0  9999,2 53825  53.2144 130.7315 0000677  91.5270 268.5800 15.08831846101272,6917.905,95.438,540.239,539.302,0.0
53825.0,STARLINK-4751,PAYLOAD,2024-07-15 03:10:03,15.08857273,0.0001839,53.2146,129.2495,84.4684,275.6518,0.00022014,3.219e-05,0.0,0 STARLINK-4751,1 53825U 22114H   24197.13198851  .00003219  00000-0  22014-3 0  9999,2 53825  53.2146 129.2495 0001839  84.4684 275.6518 15.08857273101320,6917.828,95.436,540.965,538.42,0.0
53825.0,STARLINK-4751,PAYLOAD,2024-07-15 12:42:22,15.0886095,0.0001894,53.2145,127.4645,81.4952,278.6254,0.00084787,0.00013239,0.0,0 STARLINK-4751,1 53825U 22114H   24197.52942662  .00013239  00000-0  84787-3 0  9997,2 53825  53.2145 127.4645 0001894  81.4952 278.6254 15.08860950101924,6917.816,95.436,540.992,538.371,0.0
53825.0,STARLINK-4751,PAYLOAD,2024-07-16 04:36:14,15.08846468,0.0001422,53.2145,124.4897,93.1073,267.0081,0.0022776,0.00036153,0.0,0 STARLINK-4751,1 53825U 22114H   24198.19183189  .00036153  00000-0  22776-2 0  9991,2 53825  53.2145 124.4897 0001422  93.1073 267.0081 15.08846468101480,6917.861,95.437,540.709,538.742,0.0
53825.0,STARLINK-4751,PAYLOAD,2024-07-16 23:40:51,15.08859543,0.0001582,53.2141,120.9217,95.698,264.4192,0.0013923,0.00021952,0.0,0 STARLINK-4751,1 53825U 22114H   24198.98671080  .00021952  00000-0  13923-2 0  9995,2 53825  53.2141 120.9217 0001582  95.6980 264.4192 15.08859543101600,6917.821,95.436,540.78,538.591,0.0
53825.0,STARLINK-4751,PAYLOAD,2024-07-17 12:23:56,15.08861513,0.0001603,53.2155,118.5403,111.7554,248.3608,0.0012164,0.00019135,0.0,0 STARLINK-4751,1 53825U 22114H   24199.51662524  .00019135  00000-0  12164-2 0  9994,2 53825  53.2155 118.5403 0001603 111.7554 248.3608 15.08861513101687,6917.815,95.436,540.789,538.571,0.0
53825.0,STARLINK-4751,PAYLOAD,2024-07-17 21:56:15,15.08832418,0.0001392,53.2154,116.7584,92.9901,267.1251,0.00016242,2.297e-05,0.0,0 STARLINK-4751,1 53825U 22114H   24199.91406988  .00002297  00000-0  16242-3 0  9991,2 53825  53.2154 116.7584 0001392  92.9901 267.1251 15.08832418102289,6917.904,95.438,540.732,538.806,0.0
53825.0,STARLINK-4751,PAYLOAD,2024-07-18 01:07:02,15.08826982,0.0001416,53.216,116.1643,93.8872,266.2283,0.0016825,0.00026581,0.0,0 STARLINK-4751,1 53825U 22114H   24200.04655381  .00026581  00000-0  16825-2 0  9999,2 53825  53.2160 116.1643 0001416  93.8872 266.2283 15.08826982101766,6917.92,95.438,540.765,538.806,0.0
53825.0,STARLINK-4751,PAYLOAD,2024-07-18 21:47:03,15.08839339,0.0001612,53.2167,112.2962,104.8008,255.3162,0.00093169,0.00014571,0.0,0 STARLINK-4751,1 53825U 22114H   24200.90767999  .00014571  00000-0  93169-3 0  9996,2 53825  53.2167 112.2962 0001612 104.8008 255.3162 15.08839339102436,6917.882,95.438,540.863,538.632,0.0
53825.0,STARLINK-4751,PAYLOAD,2024-07-19 00:57:49,15.08834067,0.000158,53.2168,111.7016,111.0495,249.0666,0.00048876,7.498e-05,0.0,0 STARLINK-4751,1 53825U 22114H   24201.04016064  .00007498  00000-0  48876-3 0  9997,2 53825  53.2168 111.7016 0001580 111.0495 249.0666 15.08834067101919,6917.899,95.438,540.857,538.67,0.0
53825.0,STARLINK-4751,PAYLOAD,2024-07-19 10:30:08,15.08849645,0.0001526,53.2171,109.9248,114.7072,245.4079,0.0006961,0.00010811,0.0,0 STARLINK-4751,1 53825U 22114H   24201.43759799  .00010811  00000-0  69610-3 0  9991,2 53825  53.2171 109.9248 0001526 114.7072 245.4079 15.08849645102513,6917.851,95.437,540.772,538.66,0.0
53825.0,STARLINK-4751,PAYLOAD,2024-07-19 21:37:50,15.08840527,0.000262,53.218,107.8512,139.9958,220.1227,0.00027374,4.071e-05,0.0,0 STARLINK-4751,1 53825U 22114H   24201.90128080  .00004071  00000-0  27374-3 0  9998,2 53825  53.2180 107.8512 0002620 139.9958 220.1227 15.08840527102584,6917.879,95.438,541.556,537.931,0.0
53825.0,STARLINK-4751,PAYLOAD,2024-07-20 10:20:55,15.08863046,0.0001154,53.2161,105.4535,61.3611,298.7497,0.00075304,0.00011725,0.0,0 STARLINK-4751,1 53825U 22114H   24202.43119437  .00011725  00000-0  75304-3 0  9993,2 53825  53.2161 105.4535 0001154  61.3611 298.7497 15.08863046102128,6917.81,95.436,540.473,538.877,0.0
53825.0,STARLINK-4751,PAYLOAD,2024-07-20 21:28:37,15.08832419,0.0001174,53.2159,103.3817,92.9181,267.1946,-5.0504e-05,-1.091e-05,0.0,0 STARLINK-4751,1 53825U 22114H   24202.89488209 -.00001091  00000-0 -50504-4 0  9992,2 53825  53.2159 103.3817 0001174  92.9181 267.1946 15.08832419102195,6917.904,95.438,540.581,538.956,0.0
53825.0,STARLINK-4751,PAYLOAD,2024-07-21 00:39:24,15.08836302,0.0001347,53.2164,102.7892,109.6852,250.4285,0.00011065,1.473e-05,0.0,0 STARLINK-4751,1 53825U 22114H   24203.02736194  .00001473  00000-0  11065-3 0  9997,2 53825  53.2164 102.7892 0001347 109.6852 250.4285 15.08836302102758,6917.892,95.438,540.689,538.825,0.0
53825.0,STARLINK-4751,PAYLOAD,2024-07-21 21:19:25,15.08844795,0.0001334,53.2161,98.9243,108.9246,251.1891,0.00065691,0.00010184,0.0,0 STARLINK-4751,1 53825U 22114H   24203.88848498  .00010184  00000-0  65691-3 0  9995,2 53825  53.2161  98.9243 0001334 108.9246 251.1891 15.08844795102886,6917.866,95.437,540.654,538.808,0.0
53825.0,STARLINK-4751,PAYLOAD,2024-07-22 02:05:34,15.08843085,0.0001329,53.2156,98.027,92.405,267.7094,0.0003845,5.837e-05,0.0,0 STARLINK-4751,1 53825U 22114H   24204.08720469  .00005837  00000-0  38450-3 0  9997,2 53825  53.2156  98.0270 0001329  92.4050 267.7094 15.08843085102378,6917.871,95.437,540.655,538.817,0.0
53825.0,STARLINK-4751,PAYLOAD,2024-07-22 22:45:35,15.0885133,0.0001378,53.2155,94.1613,92.3867,267.7283,0.00044907,6.868e-05,0.0,0 STARLINK-4751,1 53825U 22114H   24204.94832206  .00006868  00000-0  44907-3 0  9994,2 53825  53.2155  94.1613 0001378  92.3867 267.7283 15.08851330103041,6917.846,95.437,540.664,538.757,0.0
53825.0,STARLINK-4751,PAYLOAD,2024-07-23 09:53:16,15.08861418,0.0001242,53.215,92.0741,108.4389,251.6739,0.00056932,8.79e-05,0.0,0 STARLINK-4751,1 53825U 22114H   24205.41199432  .00008790  00000-0  56932-3 0  9991,2 53825  53.2150  92.0741 0001242 108.4389 251.6739 15.08861418102576,6917.815,95.436,540.539,538.821,0.0
53825.0,STARLINK-4751,PAYLOAD,2024-07-23 16:14:49,15.08825744,0.0001473,53.2145,90.8875,107.4359,252.6794,-0.00044295,-7.328e-05,0.0,0 STARLINK-4751,1 53825U 22114H   24205.67696351 -.00007328  00000-0 -44295-3 0  9998,2 53825  53.2145  90.8875 0001473 107.4359 252.6794 15.08825744102615,6917.924,95.438,540.808,538.77,0.0
53825.0,STARLINK-4751,PAYLOAD,2024-07-23 22:36:22,15.08827735,0.0001198,53.2145,89.7025,94.1474,265.9655,-0.00030814,-5.187e-05,0.0,0 STARLINK-4751,1 53825U 22114H   24205.94192614 -.00005187  00000-0 -30814-3 0  9994,2 53825  53.2145  89.7025 0001198  94.1474 265.9655 15.08827735103192,6917.918,95.438,540.612,538.954,0.0
